NORAD_CAT_ID,OBJECT_NAME,OBJECT_TYPE,EPOCH,MEAN_MOTION,ECCENTRICITY,INCLINATION,RA_OF_ASC_NODE,ARG_OF_PERICENTER,MEAN_ANOMALY,BSTAR,MEAN_MOTION_DOT,MEAN_MOTION_DDOT,TLE_LINE0,TLE_LINE1,TLE_LINE2,SEMIMAJOR_AXIS,PERIOD,APOGEE,PERIGEE,DECAYED
52877.0,STARLINK-4214,PAYLOAD,2024-02-03 18:51:36,15.08839139,0.0001373,53.2179,207.9086,89.5776,270.5374,6.6562e-05,7.72e-06,0.0,0 STARLINK-4214,1 52877U 22062AZ  24034.78584239  .00000772  00000-0  66562-4 0  9995,2 52877  53.2179 207.9086 0001373  89.5776 270.5374 15.08839139 91089,6917.883,95.438,540.698,538.798,0.0
52877.0,STARLINK-4214,PAYLOAD,2024-02-03 20:26:59,15.08838585,0.0001382,53.2179,207.6112,89.9925,270.1226,5.6774e-05,6.16e-06,0.0,0 STARLINK-4214,1 52877U 22062AZ  24034.85208238  .00000616  00000-0  56774-4 0  9996,2 52877  53.2179 207.6112 0001382  89.9925 270.1226 15.08838585 90609,6917.885,95.438,540.706,538.794,0.0
52877.0,STARLINK-4214,PAYLOAD,2024-02-04 10:45:28,15.08836166,0.0001433,53.2186,204.9363,85.8195,274.2961,7.0235e-05,8.3e-06,0.0,0 STARLINK-4214,1 52877U 22062AZ  24035.44824630  .00000830  00000-0  70235-4 0  9998,2 52877  53.2186 204.9363 0001433  85.8195 274.2961 15.08836166 90699,6917.892,95.438,540.748,538.766,0.0
52877.0,STARLINK-4214,PAYLOAD,2024-02-04 18:42:24,15.08837882,0.0001418,53.2187,203.4496,85.1325,274.9829,8.0106e-05,9.87e-06,0.0,0 STARLINK-4214,1 52877U 22062AZ  24035.77944580  .00000987  00000-0  80106-4 0  9992,2 52877  53.2187 203.4496 0001418  85.1325 274.9829 15.08837882 90744,6917.887,95.438,540.733,538.771,0.0
52877.0,STARLINK-4214,PAYLOAD,2024-02-05 18:33:10,15.08848875,0.0001424,53.2187,198.9891,84.0558,276.0597,0.00017135,2.441e-05,0.0,0 STARLINK-4214,1 52877U 22062AZ  24036.77303773  .00002441  00000-0  17135-3 0  9994,2 52877  53.2187 198.9891 0001424  84.0558 276.0597 15.08848875 91384,6917.853,95.437,540.703,538.733,0.0
52877.0,STARLINK-4214,PAYLOAD,2024-02-06 10:27:02,15.08847419,0.0001722,53.2192,196.0165,74.8392,285.2791,7.3318e-05,8.79e-06,0.0,0 STARLINK-4214,1 52877U 22062AZ  24037.43544158  .00000879  00000-0  73318-4 0  9991,2 52877  53.2192 196.0165 0001722  74.8392 285.2791 15.08847419 91489,6917.858,95.437,540.914,538.531,0.0
52877.0,STARLINK-4214,PAYLOAD,2024-02-06 16:48:34,15.08846319,0.0001725,53.218,194.8274,66.9069,293.2105,0.00014343,1.996e-05,0.0,0 STARLINK-4214,1 52877U 22062AZ  24037.70040180  .00001996  00000-0  14343-3 0  9990,2 52877  53.2180 194.8274 0001725  66.9069 293.2105 15.08846319 91036,6917.861,95.437,540.919,538.533,0.0
52877.0,STARLINK-4214,PAYLOAD,2024-02-07 10:17:49,15.08842447,0.0001729,53.2173,191.5591,68.4077,291.7099,1.8705e-05,1e-07,0.0,0 STARLINK-4214,1 52877U 22062AZ  24038.42904312  .00000010  00000-0  18705-4 0  9999,2 52877  53.2173 191.5591 0001729  68.4077 291.7099 15.08842447 91633,6917.873,95.437,540.934,538.542,0.0
52877.0,STARLINK-4214,PAYLOAD,2024-02-07 13:28:35,15.08841606,0.0001616,53.2184,190.9632,73.8364,286.2805,1.4853e-06,-2.64e-06,0.0,0 STARLINK-4214,1 52877U 22062AZ  24038.56152476 -.00000264  00000-0  14853-5 0  9993,2 52877  53.2184 190.9632 0001616  73.8364 286.2805 15.08841606 91166,6917.875,95.437,540.858,538.623,0.0
52877.0,STARLINK-4214,PAYLOAD,2024-02-07 16:39:21,15.08848742,0.000135,53.2181,190.3671,98.5525,261.562,-7.2711e-05,-1.445e-05,0.0,0 STARLINK-4214,1 52877U 22062AZ  24038.69400019 -.00001445  00000-0 -72711-4 0  9995,2 52877  53.2181 190.3671 0001350  98.5525 261.5620 15.08848742 91189,6917.854,95.437,540.653,538.785,0.0
52877.0,STARLINK-4214,PAYLOAD,2024-02-08 14:54:46,15.08834775,0.0001522,53.219,186.2046,100.6901,259.4262,-2.4893e-06,-3.28e-06,0.0,0 STARLINK-4214,1 52877U 22062AZ  24039.62136831 -.00000328  00000-0 -24893-5 0  9995,2 52877  53.2190 186.2046 0001522 100.6901 259.4262 15.08834775 91328,6917.896,95.438,540.814,538.708,0.0
52877.0,STARLINK-4214,PAYLOAD,2024-02-08 16:30:09,15.08836178,0.0001546,53.2192,185.9074,100.8462,259.2704,7.4042e-06,-1.7e-06,0.0,0 STARLINK-4214,1 52877U 22062AZ  24039.68760721 -.00000170  00000-0  74042-5 0  9997,2 52877  53.2192 185.9074 0001546 100.8462 259.2704 15.08836178 91820,6917.892,95.438,540.827,538.688,0.0
52877.0,STARLINK-4214,PAYLOAD,2024-02-09 13:10:09,15.08841907,0.0001486,53.2192,182.0409,100.6527,259.4632,0.000104,1.368e-05,0.0,0 STARLINK-4214,1 52877U 22062AZ  24040.54872272  .00001368  00000-0  10400-3 0  9994,2 52877  53.2192 182.0409 0001486 100.6527 259.4632 15.08841907 91461,6917.875,95.437,540.768,538.712,0.0
52877.0,STARLINK-4214,PAYLOAD,2024-02-09 16:20:55,15.08845739,0.0001516,53.2192,181.4465,100.7191,259.3972,0.0001379,1.908e-05,0.0,0 STARLINK-4214,1 52877U 22062AZ  24040.68119950  .00001908  00000-0  13790-3 0  9991,2 52877  53.2192 181.4465 0001516 100.7191 259.3972 15.08845739 91977,6917.863,95.437,540.777,538.679,0.0
52877.0,STARLINK-4214,PAYLOAD,2024-02-10 09:50:11,15.08836757,0.0001391,53.2192,178.1795,98.7109,261.4041,5.4997e-05,5.87e-06,0.0,0 STARLINK-4214,1 52877U 22062AZ  24041.40985088  .00000587  00000-0  54997-4 0  9992,2 52877  53.2192 178.1795 0001391  98.7109 261.4041 15.08836757 92086,6917.89,95.438,540.718,538.793,0.0
52877.0,STARLINK-4214,PAYLOAD,2024-02-10 13:00:57,15.08838015,0.0001485,53.2194,177.5837,104.8115,255.3041,6.5362e-05,7.52e-06,0.0,0 STARLINK-4214,1 52877U 22062AZ  24041.54232993  .00000752  00000-0  65362-4 0  9999,2 52877  53.2194 177.5837 0001485 104.8115 255.3041 15.08838015 91617,6917.886,95.438,540.779,538.724,0.0
52877.0,STARLINK-4214,PAYLOAD,2024-02-10 19:22:29,15.08844955,0.0001436,53.2187,176.3891,98.3295,261.786,0.00011078,1.476e-05,0.0,0 STARLINK-4214,1 52877U 22062AZ  24041.80728417  .00001476  00000-0  11078-3 0  9997,2 52877  53.2187 176.3891 0001436  98.3295 261.7860 15.08844955 92147,6917.865,95.437,540.724,538.737,0.0
52877.0,STARLINK-4214,PAYLOAD,2024-02-11 14:27:07,15.08845127,0.0001507,53.2184,172.8198,105.7699,254.346,1.382e-05,-6.8e-07,0.0,0 STARLINK-4214,1 52877U 22062AZ  24042.60216656 -.00000068  00000-0  13820-4 0  9998,2 52877  53.2184 172.8198 0001507 105.7699 254.3460 15.08845127 91779,6917.865,95.437,540.772,538.687,0.0
52877.0,STARLINK-4214,PAYLOAD,2024-02-11 17:37:52,15.08853168,0.0001519,53.2193,172.2246,88.4559,271.6608,9.3163e-05,1.196e-05,0.0,0 STARLINK-4214,1 52877U 22062AZ  24042.73464002  .00001196  00000-0  93163-4 0  9992,2 52877  53.2193 172.2246 0001519  88.4559 271.6608 15.08853168 91794,6917.84,95.437,540.756,538.654,0.0
52877.0,STARLINK-4214,PAYLOAD,2024-02-12 14:17:54,15.08841452,0.0001558,53.2181,168.3592,88.5738,271.5433,4.348e-05,4.04e-06,0.0,0 STARLINK-4214,1 52877U 22062AZ  24043.59576939  .00000404  00000-0  43480-4 0  9998,2 52877  53.2181 168.3592 0001558  88.5738 271.5433 15.08841452 91927,6917.876,95.437,540.819,538.663,0.0
52877.0,STARLINK-4214,PAYLOAD,2024-02-12 15:53:17,15.08845509,0.0001541,53.2186,168.0629,84.0079,276.1089,7.6416e-05,9.29e-06,0.0,0 STARLINK-4214,1 52877U 22062AZ  24043.66200624  .00000929  00000-0  76416-4 0  9998,2 52877  53.2186 168.0629 0001541  84.0079 276.1089 15.08845509 92422,6917.864,95.437,540.795,538.663,0.0
52877.0,STARLINK-4214,PAYLOAD,2024-02-13 07:47:09,15.08834133,0.0001306,53.2194,165.0922,103.4091,256.7046,4.0828e-05,3.62e-06,0.0,0 STARLINK-4214,1 52877U 22062AZ  24044.32441465  .00000362  00000-0  40828-4 0  9991,2 52877  53.2194 165.0922 0001306 103.4091 256.7046 15.08834133 92522,6917.898,95.438,540.667,538.86,0.0
52877.0,STARLINK-4214,PAYLOAD,2024-02-13 14:08:39,15.08880512,0.0002753,53.2189,163.9005,102.7362,257.3938,0.00026941,4.007e-05,0.0,0 STARLINK-4214,1 52877U 22062AZ  24044.58934214  .00004007  00000-0  26941-3 0  9997,2 52877  53.2189 163.9005 0002753 102.7362 257.3938 15.08880512 92074,6917.757,95.435,541.526,537.717,0.0
52877.0,STARLINK-4214,PAYLOAD,2024-02-14 12:24:05,15.08843042,0.0001755,53.2182,159.7394,125.4048,234.7108,6.3833e-05,7.28e-06,0.0,0 STARLINK-4214,1 52877U 22062AZ  24045.51673035  .00000728  00000-0  63833-4 0  9990,2 52877  53.2182 159.7394 0001755 125.4048 234.7108 15.08843042 92700,6917.871,95.437,540.95,538.522,0.0
52877.0,STARLINK-4214,PAYLOAD,2024-02-14 13:59:28,15.08846774,0.0001486,53.2183,159.4421,87.1254,272.9908,3.201e-05,2.22e-06,0.0,0 STARLINK-4214,1 52877U 22062AZ  24045.58297023  .00000222  00000-0  32010-4 0  9998,2 52877  53.2183 159.4421 0001486  87.1254 272.9908 15.08846774 92227,6917.86,95.437,540.753,538.697,0.0
52877.0,STARLINK-4214,PAYLOAD,2024-02-15 10:39:30,15.08836904,0.0001611,53.2203,155.5773,105.508,254.609,8.0229e-05,9.89e-06,0.0,0 STARLINK-4214,1 52877U 22062AZ  24046.44409740  .00000989  00000-0  80229-4 0  9990,2 52877  53.2203 155.5773 0001611 105.5080 254.6090 15.08836904 92840,6917.89,95.438,540.869,538.64,0.0
52877.0,STARLINK-4214,PAYLOAD,2024-02-15 13:50:16,15.08838287,0.0001532,53.2186,154.9814,106.4439,253.6722,8.1828e-05,1.014e-05,0.0,0 STARLINK-4214,1 52877U 22062AZ  24046.57657624  .00001014  00000-0  81828-4 0  9996,2 52877  53.2186 154.9814 0001532 106.4439 253.6722 15.08838287 92374,6917.886,95.438,540.81,538.691,0.0
52877.0,STARLINK-4214,PAYLOAD,2024-02-16 12:05:39,15.0884861,0.0001462,53.2186,150.8202,90.5264,269.5896,2.6847e-05,1.39e-06,0.0,0 STARLINK-4214,1 52877U 22062AZ  24047.50393305  .00000139  00000-0  26847-4 0  9990,2 52877  53.2186 150.8202 0001462  90.5264 269.5896 15.08848610 93001,6917.854,95.437,540.73,538.708,0.0
52877.0,STARLINK-4214,PAYLOAD,2024-02-16 13:41:02,15.0884768,0.0001382,53.218,150.5207,90.7133,269.4017,0.00010955,1.456e-05,0.0,0 STARLINK-4214,1 52877U 22062AZ  24047.57017044  .00001456  00000-0  10955-3 0  9995,2 52877  53.2180 150.5207 0001382  90.7133 269.4017 15.08847680 92521,6917.857,95.437,540.678,538.766,0.0
52877.0,STARLINK-4214,PAYLOAD,2024-02-17 11:56:28,15.08825676,0.0001505,53.2192,146.3625,91.8769,268.2396,3.5846e-05,2.82e-06,0.0,0 STARLINK-4214,1 52877U 22062AZ  24048.49754966  .00000282  00000-0  35846-4 0  9991,2 52877  53.2192 146.3625 0001505  91.8769 268.2396 15.08825676 93153,6917.924,95.438,540.83,538.748,0.0
